TEVEL2-5                
1 63214U 25052E   26068.96660006  .00021339  00000+0  71765-3 0  9991
2 63214  97.4013 325.3677 0004700  95.3936 264.7842 15.30817434 54919
STARLINK-35346          
1 66179U 25243C   26068.76713453  .00031960  00000+0  10865-2 0  9993
2 66179  53.1584 245.0313 0000835  90.5088 269.6009 15.30201451 20669
