[{"OBJECT_NAME":"TEVEL2-5","OBJECT_ID":"2025-052E","EPOCH":"2026-03-09T23:11:54.246048","MEAN_MOTION":15.30817434,"ECCENTRICITY":0.00047002,"INCLINATION":97.4013,"RA_OF_ASC_NODE":325.3677,"ARG_OF_PERICENTER":95.3936,"MEAN_ANOMALY":264.7842,"EPHEMERIS_TYPE":0,"CLASSIFICATION_TYPE":"U","NORAD_CAT_ID":63214,"ELEMENT_SET_NO":999,"REV_AT_EPOCH":5491,"BSTAR":0.00071764727,"MEAN_MOTION_DOT":0.00021339,"MEAN_MOTION_DDOT":0},{"OBJECT_NAME":"STARLINK-35346","OBJECT_ID":"2025-243C","EPOCH":"2026-03-09T18:24:40.423392","MEAN_MOTION":15.30201451,"ECCENTRICITY":8.356e-5,"INCLINATION":53.1584,"RA_OF_ASC_NODE":245.0313,"ARG_OF_PERICENTER":90.5088,"MEAN_ANOMALY":269.6009,"EPHEMERIS_TYPE":0,"CLASSIFICATION_TYPE":"U","NORAD_CAT_ID":66179,"ELEMENT_SET_NO":999,"REV_AT_EPOCH":2066,"BSTAR":0.0010865219,"MEAN_MOTION_DOT":0.0003196,"MEAN_MOTION_DDOT":0}]
